[{"OBJECT_NAME":"ONEWEB-0685","OBJECT_ID":"2022-166AP","EPOCH":"2025-09-05T04:06:39.377376","MEAN_MOTION":13.21826772,"ECCENTRICITY":0.00021917,"INCLINATION":87.9226,"RA_OF_ASC_NODE":300.8681,"ARG_OF_PERICENTER":92.7876,"MEAN_ANOMALY":267.3508,"EPHEMERIS_TYPE":0,"CLASSIFICATION_TYPE":"U","NORAD_CAT_ID":54679,"ELEMENT_SET_NO":999,"REV_AT_EPOCH":13376,"BSTAR":0.00014478706,"MEAN_MOTION_DOT":7.3e-7,"MEAN_MOTION_DDOT":0},{"OBJECT_NAME":"ONEWEB-0712","OBJECT_ID":"2022-166AQ","EPOCH":"2025-09-05T03:32:16.735488","MEAN_MOTION":13.16595557,"ECCENTRICITY":0.00018216,"INCLINATION":87.9005,"RA_OF_ASC_NODE":285.5779,"ARG_OF_PERICENTER":75.6009,"MEAN_ANOMALY":284.5324,"EPHEMERIS_TYPE":0,"CLASSIFICATION_TYPE":"U","NORAD_CAT_ID":54680,"ELEMENT_SET_NO":999,"REV_AT_EPOCH":13455,"BSTAR":0.00019633018,"MEAN_MOTION_DOT":8.8e-7,"MEAN_MOTION_DDOT":0},{"OBJECT_NAME":"ONEWEB-0714","OBJECT_ID":"2022-166AR","EPOCH":"2025-09-05T04:15:39.314304","MEAN_MOTION":13.21829412,"ECCENTRICITY":0.0002112,"INCLINATION":87.9227,"RA_OF_ASC_NODE":300.8604,"ARG_OF_PERICENTER":90.8378,"MEAN_ANOMALY":269.2998,"EPHEMERIS_TYPE":0,"CLASSIFICATION_TYPE":"U","NORAD_CAT_ID":54681,"ELEMENT_SET_NO":999,"REV_AT_EPOCH":13388,"BSTAR":0.00012227288,"MEAN_MOTION_DOT":6.4e-7,"MEAN_MOTION_DDOT":0},{"OBJECT_NAME":"ONEWEB-0532","OBJECT_ID":"2023-004A","EPOCH":"2025-09-05T01:04:40.289664","MEAN_MOTION":13.17650423,"ECCENTRICITY":0.00020893,"INCLINATION":87.9039,"RA_OF_ASC_NODE":62.5813,"ARG_OF_PERICENTER":99.8637,"MEAN_ANOMALY":260.273,"EPHEMERIS_TYPE":0,"CLASSIFICATION_TYPE":"U","NORAD_CAT_ID":55140,"ELEMENT_SET_NO":999,"REV_AT_EPOCH":13003,"BSTAR":4.3058338e-5,"MEAN_MOTION_DOT":3.0e-7,"MEAN_MOTION_DDOT":0},{"OBJECT_NAME":"ONEWEB-0533","OBJECT_ID":"2023-004B","EPOCH":"2025-09-04T22:46:56.025984","MEAN_MOTION":13.12443634,"ECCENTRICITY":0.0001868,"INCLINATION":87.8887,"RA_OF_ASC_NODE":47.3386,"ARG_OF_PERICENTER":87.9045,"MEAN_ANOMALY":272.2297,"EPHEMERIS_TYPE":0,"CLASSIFICATION_TYPE":"U","NORAD_CAT_ID":55141,"ELEMENT_SET_NO":999,"REV_AT_EPOCH":13064,"BSTAR":-0.00049888554,"MEAN_MOTION_DOT":-1.67e-6,"MEAN_MOTION_DDOT":0},{"OBJECT_NAME":"ONEWEB-0541","OBJECT_ID":"2023-004C","EPOCH":"2025-09-05T01:28:14.423520","MEAN_MOTION":13.11416218,"ECCENTRICITY":0.00016782,"INCLINATION":87.8776,"RA_OF_ASC_NODE":77.8573,"ARG_OF_PERICENTER":92.6187,"MEAN_ANOMALY":267.5133,"EPHEMERIS_TYPE":0,"CLASSIFICATION_TYPE":"U","NORAD_CAT_ID":55142,"ELEMENT_SET_NO":999,"REV_AT_EPOCH":12857,"BSTAR":0.0014188929,"MEAN_MOTION_DOT":5.16e-6,"MEAN_MOTION_DDOT":0},{"OBJECT_NAME":"ONEWEB-0543","OBJECT_ID":"2023-004D","EPOCH":"2025-09-04T22:39:25.713504","MEAN_MOTION":13.18686171,"ECCENTRICITY":0.00016441,"INCLINATION":87.9159,"RA_OF_ASC_NODE":32.1549,"ARG_OF_PERICENTER":87.0999,"MEAN_ANOMALY":273.0322,"EPHEMERIS_TYPE":0,"CLASSIFICATION_TYPE":"U","NORAD_CAT_ID":55143,"ELEMENT_SET_NO":999,"REV_AT_EPOCH":13210,"BSTAR":-7.3714846e-5,"MEAN_MOTION_DOT":-1.6e-7,"MEAN_MOTION_DDOT":0},{"OBJECT_NAME":"ONEWEB-0544","OBJECT_ID":"2023-004E","EPOCH":"2025-09-05T03:57:42.173280","MEAN_MOTION":13.18687228,"ECCENTRICITY":0.00014944,"INCLINATION":87.9161,"RA_OF_ASC_NODE":32.101,"ARG_OF_PERICENTER":94.8737,"MEAN_ANOMALY":265.2566,"EPHEMERIS_TYPE":0,"CLASSIFICATION_TYPE":"U","NORAD_CAT_ID":55144,"ELEMENT_SET_NO":999,"REV_AT_EPOCH":13213,"BSTAR":0.00013255881,"MEAN_MOTION_DOT":6.5e-7,"MEAN_MOTION_DDOT":0},{"OBJECT_NAME":"ONEWEB-0560","OBJECT_ID":"2023-004F","EPOCH":"2025-09-05T03:48:12.756672","MEAN_MOTION":13.18686656,"ECCENTRICITY":0.00014215,"INCLINATION":87.9169,"RA_OF_ASC_NODE":32.0803,"ARG_OF_PERICENTER":95.475,"MEAN_ANOMALY":264.6544,"EPHEMERIS_TYPE":0,"CLASSIFICATION_TYPE":"U","NORAD_CAT_ID":55145,"ELEMENT_SET_NO":999,"REV_AT_EPOCH":13214,"BSTAR":0.00010421736,"MEAN_MOTION_DOT":5.4e-7,"MEAN_MOTION_DDOT":0},{"OBJECT_NAME":"ONEWEB-0565","OBJECT_ID":"2023-004G","EPOCH":"2025-09-05T03:38:42.333504","MEAN_MOTION":13.18684945,"ECCENTRICITY":0.00016213,"INCLINATION":87.9161,"RA_OF_ASC_NODE":32.1363,"ARG_OF_PERICENTER":114.7254,"MEAN_ANOMALY":245.4047,"EPHEMERIS_TYPE":0,"CLASSIFICATION_TYPE":"U","NORAD_CAT_ID":55146,"ELEMENT_SET_NO":999,"REV_AT_EPOCH":13213,"BSTAR":0.00025500211,"MEAN_MOTION_DOT":1.13e-6,"MEAN_MOTION_DDOT":0},{"OBJECT_NAME":"ONEWEB-0567","OBJECT_ID":"2023-004H","EPOCH":"2025-09-05T03:29:12.389856","MEAN_MOTION":13.18685317,"ECCENTRICITY":0.0001458,"INCLINATION":87.9165,"RA_OF_ASC_NODE":32.0972,"ARG_OF_PERICENTER":107.3598,"MEAN_ANOMALY":252.7694,"EPHEMERIS_TYPE":0,"CLASSIFICATION_TYPE":"U","NORAD_CAT_ID":55147,"ELEMENT_SET_NO":999,"REV_AT_EPOCH":13213,"BSTAR":0.00040624143,"MEAN_MOTION_DOT":1.73e-6,"MEAN_MOTION_DDOT":0},{"OBJECT_NAME":"ONEWEB-0569","OBJECT_ID":"2023-004J","EPOCH":"2025-09-04T21:00:34.000128","MEAN_MOTION":13.134704,"ECCENTRICITY":8.348e-5,"INCLINATION":87.9028,"RA_OF_ASC_NODE":16.8802,"ARG_OF_PERICENTER":118.7125,"MEAN_ANOMALY":241.4089,"EPHEMERIS_TYPE":0,"CLASSIFICATION_TYPE":"U","NORAD_CAT_ID":55148,"ELEMENT_SET_NO":999,"REV_AT_EPOCH":13272,"BSTAR":0.00024277148,"MEAN_MOTION_DOT":1.01e-6,"MEAN_MOTION_DDOT":0},{"OBJECT_NAME":"ONEWEB-0570","OBJECT_ID":"2023-004K","EPOCH":"2025-09-05T03:14:57.723648","MEAN_MOTION":13.186871,"ECCENTRICITY":0.00021137,"INCLINATION":87.9159,"RA_OF_ASC_NODE":32.1002,"ARG_OF_PERICENTER":110.3937,"MEAN_ANOMALY":249.7422,"EPHEMERIS_TYPE":0,"CLASSIFICATION_TYPE":"U","NORAD_CAT_ID":55149,"ELEMENT_SET_NO":999,"REV_AT_EPOCH":13212,"BSTAR":0.00026146969,"MEAN_MOTION_DOT":1.16e-6,"MEAN_MOTION_DDOT":0},{"OBJECT_NAME":"ONEWEB-0571","OBJECT_ID":"2023-004L","EPOCH":"2025-09-05T03:05:27.758400","MEAN_MOTION":13.18686899,"ECCENTRICITY":0.0001355,"INCLINATION":87.9159,"RA_OF_ASC_NODE":32.1067,"ARG_OF_PERICENTER":143.6604,"MEAN_ANOMALY":216.462,"EPHEMERIS_TYPE":0,"CLASSIFICATION_TYPE":"U","NORAD_CAT_ID":55150,"ELEMENT_SET_NO":999,"REV_AT_EPOCH":13213,"BSTAR":0.00039296596,"MEAN_MOTION_DOT":1.68e-6,"MEAN_MOTION_DDOT":0},{"OBJECT_NAME":"ONEWEB-0572","OBJECT_ID":"2023-004M","EPOCH":"2025-09-05T05:27:05.121504","MEAN_MOTION":13.17650819,"ECCENTRICITY":0.00017568,"INCLINATION":87.9039,"RA_OF_ASC_NODE":62.5545,"ARG_OF_PERICENTER":97.176,"MEAN_ANOMALY":262.9571,"EPHEMERIS_TYPE":0,"CLASSIFICATION_TYPE":"U","NORAD_CAT_ID":55151,"ELEMENT_SET_NO":999,"REV_AT_EPOCH":12995,"BSTAR":3.8858608e-5,"MEAN_MOTION_DOT":2.8e-7,"MEAN_MOTION_DDOT":0},{"OBJECT_NAME":"ONEWEB-0573","OBJECT_ID":"2023-004N","EPOCH":"2025-09-05T02:55:56.255232","MEAN_MOTION":13.18686997,"ECCENTRICITY":0.00018196,"INCLINATION":87.9157,"RA_OF_ASC_NODE":32.1148,"ARG_OF_PERICENTER":125.7593,"MEAN_ANOMALY":234.3709,"EPHEMERIS_TYPE":0,"CLASSIFICATION_TYPE":"U","NORAD_CAT_ID":55152,"ELEMENT_SET_NO":999,"REV_AT_EPOCH":13212,"BSTAR":0.00025844666,"MEAN_MOTION_DOT":1.15e-6,"MEAN_MOTION_DDOT":0},{"OBJECT_NAME":"ONEWEB-0588","OBJECT_ID":"2023-004P","EPOCH":"2025-09-05T02:46:26.326272","MEAN_MOTION":13.18685099,"ECCENTRICITY":0.0001961,"INCLINATION":87.9162,"RA_OF_ASC_NODE":32.1021,"ARG_OF_PERICENTER":109.6278,"MEAN_ANOMALY":250.5066,"EPHEMERIS_TYPE":0,"CLASSIFICATION_TYPE":"U","NORAD_CAT_ID":55153,"ELEMENT_SET_NO":999,"REV_AT_EPOCH":13212,"BSTAR":0.00014187478,"MEAN_MOTION_DOT":6.9e-7,"MEAN_MOTION_DDOT":0}]
