ONEWEB-0685             
1 54679U 22166AP  25248.17128909  .00000073  00000+0  14479-3 0  9993
2 54679  87.9226 300.8681 0002191  92.7876 267.3508 13.21826772133765
ONEWEB-0712             
1 54680U 22166AQ  25248.14741592  .00000088  00000+0  19633-3 0  9994
2 54680  87.9005 285.5779 0001821  75.6009 284.5324 13.16595557134559
ONEWEB-0714             
1 54681U 22166AR  25248.17753836  .00000064  00000+0  12227-3 0  9998
2 54681  87.9227 300.8604 0002112  90.8378 269.2998 13.21829412133884
ONEWEB-0532             
1 55140U 23004A   25248.04491076  .00000030  00000+0  43058-4 0  9992
2 55140  87.9039  62.5813 0002089  99.8637 260.2730 13.17650423130038
ONEWEB-0533             
1 55141U 23004B   25247.94925956 -.00000167  00000+0 -49889-3 0  9990
2 55141  87.8887  47.3386 0001868  87.9045 272.2297 13.12443634130647
ONEWEB-0541             
1 55142U 23004C   25248.06127805  .00000516  00000+0  14189-2 0  9992
2 55142  87.8776  77.8573 0001678  92.6187 267.5133 13.11416218128572
ONEWEB-0543             
1 55143U 23004D   25247.94404761 -.00000016  00000+0 -73715-4 0  9997
2 55143  87.9159  32.1549 0001644  87.0999 273.0322 13.18686171132108
ONEWEB-0544             
1 55144U 23004E   25248.16507145  .00000065  00000+0  13256-3 0  9998
2 55144  87.9161  32.1010 0001494  94.8737 265.2566 13.18687228132134
ONEWEB-0560             
1 55145U 23004F   25248.15848098  .00000054  00000+0  10422-3 0  9993
2 55145  87.9169  32.0803 0001421  95.4750 264.6544 13.18686656132148
ONEWEB-0565             
1 55146U 23004G   25248.15187886  .00000113  00000+0  25500-3 0  9994
2 55146  87.9161  32.1363 0001621 114.7254 245.4047 13.18684945132132
ONEWEB-0567             
1 55147U 23004H   25248.14528229  .00000173  00000+0  40624-3 0  9994
2 55147  87.9165  32.0972 0001458 107.3598 252.7694 13.18685317132132
ONEWEB-0569             
1 55148U 23004J   25247.87539352  .00000101  00000+0  24277-3 0  9990
2 55148  87.9028  16.8802 0000834 118.7125 241.4089 13.13470400132720
ONEWEB-0570             
1 55149U 23004K   25248.13539032  .00000116  00000+0  26147-3 0  9990
2 55149  87.9159  32.1002 0002113 110.3937 249.7422 13.18687100132128
ONEWEB-0571             
1 55150U 23004L   25248.12879350  .00000168  00000+0  39297-3 0  9998
2 55150  87.9159  32.1067 0001355 143.6604 216.4620 13.18686899132134
ONEWEB-0572             
1 55151U 23004M   25248.22714261  .00000028  00000+0  38859-4 0  9998
2 55151  87.9039  62.5545 0001756  97.1760 262.9571 13.17650819129950
ONEWEB-0573             
1 55152U 23004N   25248.12217888  .00000115  00000+0  25845-3 0  9998
2 55152  87.9157  32.1148 0001819 125.7593 234.3709 13.18686997132122
ONEWEB-0588             
1 55153U 23004P   25248.11558248  .00000069  00000+0  14187-3 0  9991
2 55153  87.9162  32.1021 0001961 109.6278 250.5066 13.18685099132126
